start=new Date('2023-06-20T00:00:00.000Z').valueOf();
sats=[{"BSTAR":"0.00147720000000","GP_ID":"234314784","OBJECT_NAME":"STARLINK-1893","TIME_SYSTEM":"UTC","EPHEMERIS_TYPE":"0","FILE":"3937509","EPOCH":"2023-06-19T19:04:18.658560","REV_AT_EPOCH":"14729","ELEMENT_SET_NO":"999","INCLINATION":"53.0544","OBJECT_ID":"2020-074AZ","MEAN_MOTION_DOT":"0.00021814","MEAN_MOTION_DDOT":"0.0000000000000","PERIAPSIS":"546.160","ARG_OF_PERICENTER":"99.4034","DECAY_DATE":null,"MEAN_ELEMENT_THEORY":"SGP4","COUNTRY_CODE":"US","PERIOD":"95.590","RA_OF_ASC_NODE":"73.3830","CLASSIFICATION_TYPE":"U","OBJECT_TYPE":"PAYLOAD","MEAN_ANOMALY":"260.7107","NORAD_CAT_ID":"46786","RCS_SIZE":"LARGE","REF_FRAME":"TEME","SEMIMAJOR_AXIS":"6925.223","MEAN_MOTION":"15.06441061","SITE":"AFETR","CENTER_NAME":"EARTH","ECCENTRICITY":"0.00013400","TLE_LINE1":"1 46786U 20074AZ  23170.79466040  .00021814  00000-0  14772-2 0  9992","LAUNCH_DATE":"2020-10-24","APOAPSIS":"548.016","TLE_LINE2":"2 46786  53.0544  73.3830 0001340  99.4034 260.7107 15.06441061147299"},{"OBJECT_TYPE":"PAYLOAD","MEAN_ANOMALY":"257.4791","NORAD_CAT_ID":"46787","RCS_SIZE":"LARGE","SEMIMAJOR_AXIS":"6925.323","REF_FRAME":"TEME","MEAN_MOTION":"15.06408419","SITE":"AFETR","LAUNCH_DATE":"2020-10-24","TLE_LINE1":"1 46787U 20074BA  23170.12382660  .00012145  00000-0  83263-3 0  9994","CENTER_NAME":"EARTH","ECCENTRICITY":"0.00012820","TLE_LINE2":"2 46787  53.0540  76.3960 0001282 102.6342 257.4791 15.06408419147198","APOAPSIS":"548.076","BSTAR":"0.00083263000000","EPHEMERIS_TYPE":"0","GP_ID":"234284601","TIME_SYSTEM":"UTC","OBJECT_NAME":"STARLINK-1899","ELEMENT_SET_NO":"999","REV_AT_EPOCH":"14719","INCLINATION":"53.0540","EPOCH":"2023-06-19T02:58:18.618240","FILE":"3937338","MEAN_MOTION_DOT":"0.00012145","OBJECT_ID":"2020-074BA","ARG_OF_PERICENTER":"102.6342","DECAY_DATE":null,"MEAN_MOTION_DDOT":"0.0000000000000","PERIAPSIS":"546.300","MEAN_ELEMENT_THEORY":"SGP4","COUNTRY_CODE":"US","PERIOD":"95.592","CLASSIFICATION_TYPE":"U","RA_OF_ASC_NODE":"76.3960"},{"APOAPSIS":"548.000","TLE_LINE2":"2 46788  53.0538  74.6467 0001188  98.6313 261.4810 15.06411716147254","ECCENTRICITY":"0.00011880","CENTER_NAME":"EARTH","LAUNCH_DATE":"2020-10-24","TLE_LINE1":"1 46788U 20074BB  23170.51452713  .00022387  00000-0  15166-2 0  9990","SITE":"AFETR","MEAN_MOTION":"15.06411716","SEMIMAJOR_AXIS":"6925.313","REF_FRAME":"TEME","RCS_SIZE":"LARGE","NORAD_CAT_ID":"46788","OBJECT_TYPE":"PAYLOAD","MEAN_ANOMALY":"261.4810","PERIOD":"95.591","RA_OF_ASC_NODE":"74.6467","CLASSIFICATION_TYPE":"U","MEAN_ELEMENT_THEORY":"SGP4","COUNTRY_CODE":"US","MEAN_MOTION_DDOT":"0.0000000000000","PERIAPSIS":"546.355","ARG_OF_PERICENTER":"98.6313","DECAY_DATE":null,"OBJECT_ID":"2020-074BB","MEAN_MOTION_DOT":"0.00022387","FILE":"3937338","EPOCH":"2023-06-19T12:20:55.144032","ELEMENT_SET_NO":"999","REV_AT_EPOCH":"14725","INCLINATION":"53.0538","GP_ID":"234283856","OBJECT_NAME":"STARLINK-1929","TIME_SYSTEM":"UTC","EPHEMERIS_TYPE":"0","BSTAR":"0.00151660000000"},{"MEAN_MOTION_DOT":"0.00018764","OBJECT_ID":"2020-074BC","ELEMENT_SET_NO":"999","REV_AT_EPOCH":"14683","INCLINATION":"53.0535","FILE":"3937338","EPOCH":"2023-06-19T12:54:06.738336","EPHEMERIS_TYPE":"0","GP_ID":"234284106","OBJECT_NAME":"STARLINK-1930","TIME_SYSTEM":"UTC","BSTAR":"0.00127490000000","PERIOD":"95.591","CLASSIFICATION_TYPE":"U","RA_OF_ASC_NODE":"104.7011","MEAN_ELEMENT_THEORY":"SGP4","COUNTRY_CODE":"US","ARG_OF_PERICENTER":"98.2703","DECAY_DATE":null,"MEAN_MOTION_DDOT":"0.0000000000000","PERIAPSIS":"546.312","MEAN_MOTION":"15.06410464","REF_FRAME":"TEME","SEMIMAJOR_AXIS":"6925.316","NORAD_CAT_ID":"46789","RCS_SIZE":"LARGE","MEAN_ANOMALY":"261.8428","OBJECT_TYPE":"PAYLOAD","TLE_LINE2":"2 46789  53.0535 104.7011 0001255  98.2703 261.8428 15.06410464146837","APOAPSIS":"548.051","LAUNCH_DATE":"2020-10-24","TLE_LINE1":"1 46789U 20074BC  23170.53757799  .00018764  00000-0  12749-2 0  9993","CENTER_NAME":"EARTH","ECCENTRICITY":"0.00012550","SITE":"AFETR"},{"APOAPSIS":"548.132","TLE_LINE2":"2 46790  53.0548 105.8988 0001307  88.2708 271.8431 15.06395574146783","SITE":"AFETR","ECCENTRICITY":"0.00013070","CENTER_NAME":"EARTH","TLE_LINE1":"1 46790U 20074BD  23170.23532226  .00001903  00000-0  14660-3 0  9990","LAUNCH_DATE":"2020-10-24","SEMIMAJOR_AXIS":"6925.362","REF_FRAME":"TEME","MEAN_MOTION":"15.06395574","MEAN_ANOMALY":"271.8431","OBJECT_TYPE":"PAYLOAD","RCS_SIZE":"LARGE","NORAD_CAT_ID":"46790","MEAN_ELEMENT_THEORY":"SGP4","COUNTRY_CODE":"US","RA_OF_ASC_NODE":"105.8988","CLASSIFICATION_TYPE":"U","PERIOD":"95.592","PERIAPSIS":"546.322","MEAN_MOTION_DDOT":"0.0000000000000","DECAY_DATE":null,"ARG_OF_PERICENTER":"88.2708","EPOCH":"2023-06-19T05:38:51.843264","FILE":"3937338","INCLINATION":"53.0548","REV_AT_EPOCH":"14678","ELEMENT_SET_NO":"999","OBJECT_ID":"2020-074BD","MEAN_MOTION_DOT":"0.00001903","BSTAR":"0.00014660000000","OBJECT_NAME":"STARLINK-1931","TIME_SYSTEM":"UTC","GP_ID":"234284358","EPHEMERIS_TYPE":"0"},{"DECAY_DATE":null,"ARG_OF_PERICENTER":"102.7034","PERIAPSIS":"546.241","MEAN_MOTION_DDOT":"0.0000000000000","MEAN_ELEMENT_THEORY":"SGP4","COUNTRY_CODE":"US","CLASSIFICATION_TYPE":"U","RA_OF_ASC_NODE":"104.0418","PERIOD":"95.590","BSTAR":"0.00160760000000","EPHEMERIS_TYPE":"0","OBJECT_NAME":"STARLINK-1933","TIME_SYSTEM":"UTC","GP_ID":"234315033","INCLINATION":"53.0539","REV_AT_EPOCH":"14685","ELEMENT_SET_NO":"999","EPOCH":"2023-06-19T15:33:19.383264","FILE":"3937509","MEAN_MOTION_DOT":"0.00023766","OBJECT_ID":"2020-074BE","SITE":"AFETR","TLE_LINE1":"1 46791U 20074BE  23170.64814101  .00023766  00000-0  16076-2 0  9994","LAUNCH_DATE":"2020-10-24","CENTER_NAME":"EARTH","ECCENTRICITY":"0.00012560","TLE_LINE2":"2 46791  53.0539 104.0418 0001256 102.7034 257.4095 15.06433485146858","APOAPSIS":"547.981","MEAN_ANOMALY":"257.4095","OBJECT_TYPE":"PAYLOAD","NORAD_CAT_ID":"46791","RCS_SIZE":"LARGE","REF_FRAME":"TEME","SEMIMAJOR_AXIS":"6925.246","MEAN_MOTION":"15.06433485"},{"MEAN_MOTION":"15.06409476","REF_FRAME":"TEME","SEMIMAJOR_AXIS":"6925.320","NORAD_CAT_ID":"46792","RCS_SIZE":"LARGE","OBJECT_TYPE":"PAYLOAD","MEAN_ANOMALY":"264.2221","TLE_LINE2":"2 46792  53.0547  96.0100 0001056  95.8888 264.2221 15.06409476146921","APOAPSIS":"547.916","LAUNCH_DATE":"2020-10-24","TLE_LINE1":"1 46792U 20074BF  23170.21044438  .00013217  00000-0  90427-3 0  9999","CENTER_NAME":"EARTH","ECCENTRICITY":"0.00010560","SITE":"AFETR","MEAN_MOTION_DOT":"0.00013217","OBJECT_ID":"2020-074BF","INCLINATION":"53.0547","ELEMENT_SET_NO":"999","REV_AT_EPOCH":"14692","EPOCH":"2023-06-19T05:03:02.394432","FILE":"3937338","EPHEMERIS_TYPE":"0","TIME_SYSTEM":"UTC","OBJECT_NAME":"STARLINK-1934","GP_ID":"234283357","BSTAR":"0.00090427000000","CLASSIFICATION_TYPE":"U","RA_OF_ASC_NODE":"96.0100","PERIOD":"95.592","COUNTRY_CODE":"US","MEAN_ELEMENT_THEORY":"SGP4","DECAY_DATE":null,"ARG_OF_PERICENTER":"95.8888","PERIAPSIS":"546.453","MEAN_MOTION_DDOT":"0.0000000000000"},{"TLE_LINE1":"1 46793U 20074BG  23170.23900701  .00003185  00000-0  23260-3 0  9990","LAUNCH_DATE":"2020-10-24","ECCENTRICITY":"0.00012180","CENTER_NAME":"EARTH","SITE":"AFETR","TLE_LINE2":"2 46793  53.0543 105.8803 0001218  85.3654 274.7474 15.06398544146785","APOAPSIS":"548.062","NORAD_CAT_ID":"46793","RCS_SIZE":"LARGE","OBJECT_TYPE":"PAYLOAD","MEAN_ANOMALY":"274.7474","MEAN_MOTION":"15.06398544","SEMIMAJOR_AXIS":"6925.353","REF_FRAME":"TEME","ARG_OF_PERICENTER":"85.3654","DECAY_DATE":null,"MEAN_MOTION_DDOT":"0.0000000000000","PERIAPSIS":"546.375","PERIOD":"95.592","CLASSIFICATION_TYPE":"U","RA_OF_ASC_NODE":"105.8803","COUNTRY_CODE":"US","MEAN_ELEMENT_THEORY":"SGP4","EPHEMERIS_TYPE":"0","GP_ID":"234283607","TIME_SYSTEM":"UTC","OBJECT_NAME":"STARLINK-1941","BSTAR":"0.00023260000000","MEAN_MOTION_DOT":"0.00003185","OBJECT_ID":"2020-074BG","REV_AT_EPOCH":"14678","ELEMENT_SET_NO":"999","INCLINATION":"53.0543","EPOCH":"2023-06-19T05:44:10.205664","FILE":"3937338"},{"REF_FRAME":"TEME","SEMIMAJOR_AXIS":"6925.325","MEAN_MOTION":"15.06407551","MEAN_ANOMALY":"260.7726","OBJECT_TYPE":"PAYLOAD","NORAD_CAT_ID":"46794","RCS_SIZE":"LARGE","TLE_LINE2":"2 46794  53.0547 104.6585 0001331  99.3413 260.7726 15.06407551146838","APOAPSIS":"548.112","SITE":"AFETR","TLE_LINE1":"1 46794U 20074BH  23170.51176419  .00006704  00000-0  46843-3 0  9995","LAUNCH_DATE":"2020-10-24","ECCENTRICITY":"0.00013310","CENTER_NAME":"EARTH","REV_AT_EPOCH":"14683","ELEMENT_SET_NO":"999","INCLINATION":"53.0547","EPOCH":"2023-06-19T12:16:56.426016","FILE":"3937338","MEAN_MOTION_DOT":"0.00006704","OBJECT_ID":"2020-074BH","BSTAR":"0.00046843000000","EPHEMERIS_TYPE":"0","GP_ID":"234284858","TIME_SYSTEM":"UTC","OBJECT_NAME":"STARLINK-1942","MEAN_ELEMENT_THEORY":"SGP4","COUNTRY_CODE":"US","PERIOD":"95.592","RA_OF_ASC_NODE":"104.6585","CLASSIFICATION_TYPE":"U","ARG_OF_PERICENTER":"99.3413","DECAY_DATE":null,"MEAN_MOTION_DDOT":"0.0000000000000","PERIAPSIS":"546.269"},{"RCS_SIZE":"LARGE","NORAD_CAT_ID":"46796","MEAN_ANOMALY":"260.6189","OBJECT_TYPE":"PAYLOAD","MEAN_MOTION":"15.06403334","REF_FRAME":"TEME","SEMIMAJOR_AXIS":"6925.338","LAUNCH_DATE":"2020-10-24","TLE_LINE1":"1 46796U 20074BK  23170.48687652  .00010138  00000-0  69845-3 0  9992","ECCENTRICITY":"0.00010680","CENTER_NAME":"EARTH","SITE":"AFETR","TLE_LINE2":"2 46796  53.0543  94.7675 0001068  99.4921 260.6189 15.06403334146643","APOAPSIS":"547.943","EPHEMERIS_TYPE":"0","GP_ID":"234293853","OBJECT_NAME":"STARLINK-1944","TIME_SYSTEM":"UTC","BSTAR":"0.00069845000000","MEAN_MOTION_DOT":"0.00010138","OBJECT_ID":"2020-074BK","REV_AT_EPOCH":"14664","ELEMENT_SET_NO":"999","INCLINATION":"53.0543","FILE":"3937445","EPOCH":"2023-06-19T11:41:06.131328","ARG_OF_PERICENTER":"99.4921","DECAY_DATE":null,"MEAN_MOTION_DDOT":"0.0000000000000","PERIAPSIS":"546.464","PERIOD":"95.592","RA_OF_ASC_NODE":"94.7675","CLASSIFICATION_TYPE":"U","MEAN_ELEMENT_THEORY":"SGP4","COUNTRY_CODE":"US"}];
